NORAD_CAT_ID,OBJECT_NAME,OBJECT_TYPE,EPOCH,MEAN_MOTION,ECCENTRICITY,INCLINATION,RA_OF_ASC_NODE,ARG_OF_PERICENTER,MEAN_ANOMALY,BSTAR,MEAN_MOTION_DOT,MEAN_MOTION_DDOT,TLE_LINE0,TLE_LINE1,TLE_LINE2,SEMIMAJOR_AXIS,PERIOD,APOGEE,PERIGEE,DECAYED
53800.0,STARLINK-4720,PAYLOAD,2023-04-26 21:08:30,15.08868679,0.0001313,53.2164,287.8639,75.9107,284.2031,1.0306e-05,-1.24e-06,0.0,0 STARLINK-4720,1 53800U 22111AD  23116.88090990 -.00000124  00000-0  10306-4 0  9991,2 53800  53.2164 287.8639 0001313  75.9107 284.2031 15.08868679 35634,6917.793,95.436,540.566,538.749,0.0
53800.0,STARLINK-4720,PAYLOAD,2023-04-27 13:02:23,15.08817802,0.0001832,53.2166,284.8931,60.4944,299.6231,0.00040361,6.137e-05,0.0,0 STARLINK-4720,1 53800U 22111AD  23117.54332883  .00006137  00000-0  40361-3 0  9997,2 53800  53.2166 284.8931 0001832  60.4944 299.6231 15.08817802 35737,6917.948,95.439,541.081,538.546,0.0
53800.0,STARLINK-4720,PAYLOAD,2023-04-27 20:59:19,15.08843234,0.000166,53.2146,283.4043,63.9166,296.1997,2.0189e-05,3.3e-07,0.0,0 STARLINK-4720,1 53800U 22111AD  23117.87453013  .00000033  00000-0  20189-4 0  9998,2 53800  53.2146 283.4043 0001660  63.9166 296.1997 15.08843234 34971,6917.871,95.437,540.884,538.587,0.0
53800.0,STARLINK-4720,PAYLOAD,2023-04-28 12:53:10,15.08845317,0.0001018,53.2155,280.428,84.4685,275.6423,-0.0001901,-3.312e-05,0.0,0 STARLINK-4720,1 53800U 22111AD  23118.53693218 -.00003312  00000-0 -19010-3 0  9990,2 53800  53.2155 280.4280 0001018  84.4685 275.6423 15.08845317 35883,6917.864,95.437,540.433,539.025,0.0
53800.0,STARLINK-4720,PAYLOAD,2023-04-29 03:11:39,15.08837651,0.0001539,53.218,277.7519,80.6703,279.4463,-0.00017378,-3.052e-05,0.0,0 STARLINK-4720,1 53800U 22111AD  23119.13309531 -.00003052  00000-0 -17378-3 0  9995,2 53800  53.2180 277.7519 0001539  80.6703 279.4463 15.08837651 35161,6917.888,95.438,540.817,538.688,0.0
53800.0,STARLINK-4720,PAYLOAD,2023-04-29 12:43:58,15.08833971,0.0001119,53.2152,275.9679,85.181,274.931,-9.4155e-05,-1.786e-05,0.0,0 STARLINK-4720,1 53800U 22111AD  23119.53053466 -.00001786  00000-0 -94155-4 0  9993,2 53800  53.2152 275.9679 0001119  85.1810 274.9310 15.08833971 36039,6917.899,95.438,540.538,538.99,0.0
53800.0,STARLINK-4720,PAYLOAD,2023-04-29 19:05:30,15.08840421,0.0001246,53.216,274.7787,87.0533,273.0601,-3.1134e-05,-7.83e-06,0.0,0 STARLINK-4720,1 53800U 22111AD  23119.79548883 -.00000783  00000-0 -31134-4 0  9997,2 53800  53.2160 274.7787 0001246  87.0533 273.0601 15.08840421 35264,6917.879,95.438,540.606,538.882,0.0
53800.0,STARLINK-4720,PAYLOAD,2023-04-30 14:10:08,15.08835626,0.0001554,53.2165,271.2105,102.467,257.6496,-1.2334e-05,-4.84e-06,0.0,0 STARLINK-4720,1 53800U 22111AD  23120.59037347 -.00000484  00000-0 -12334-4 0  9994,2 53800  53.2165 271.2105 0001554 102.4670 257.6496 15.08835626 36195,6917.894,95.438,540.834,538.684,0.0
53800.0,STARLINK-4720,PAYLOAD,2023-04-30 22:07:03,15.0884158,0.0001156,53.2153,269.7224,90.7825,269.3299,3.1804e-05,2.18e-06,0.0,0 STARLINK-4720,1 53800U 22111AD  23120.92156821  .00000218  00000-0  31804-4 0  9996,2 53800  53.2153 269.7224 0001156  90.7825 269.3299 15.08841580 35438,6917.876,95.437,540.54,538.941,0.0
53800.0,STARLINK-4720,PAYLOAD,2023-05-01 12:25:33,15.08825142,9.17e-05,53.2177,267.0478,83.9028,276.2069,-4.4839e-05,-1.001e-05,0.0,0 STARLINK-4720,1 53800U 22111AD  23121.51774358 -.00001001  00000-0 -44839-4 0  9998,2 53800  53.2177 267.0478 0000917  83.9028 276.2069 15.08825142 36337,6917.926,95.438,540.425,539.156,0.0
53800.0,STARLINK-4720,PAYLOAD,2023-05-01 15:36:18,15.08832834,0.0001235,53.2167,266.4522,86.4739,273.6394,-2.5583e-05,-6.95e-06,0.0,0 STARLINK-4720,1 53800U 22111AD  23121.65021923 -.00000695  00000-0 -25583-4 0  9999,2 53800  53.2167 266.4522 0001235  86.4739 273.6394 15.08832834 35540,6917.902,95.438,540.622,538.913,0.0
53800.0,STARLINK-4720,PAYLOAD,2023-05-01 18:47:04,15.08837707,0.0001252,53.2166,265.8574,87.6673,272.4463,1.4014e-05,-6.5e-07,0.0,0 STARLINK-4720,1 53800U 22111AD  23121.78269501 -.00000065  00000-0  14014-4 0  9996,2 53800  53.2166 265.8574 0001252  87.6673 272.4463 15.08837707 36378,6917.887,95.438,540.619,538.886,0.0
53800.0,STARLINK-4720,PAYLOAD,2023-05-01 21:57:50,15.08843785,0.0001238,53.2167,265.2622,96.3717,263.7416,5.7967e-05,6.35e-06,0.0,0 STARLINK-4720,1 53800U 22111AD  23121.91516899  .00000635  00000-0  57967-4 0  9992,2 53800  53.2167 265.2622 0001238  96.3717 263.7416 15.08843785 35583,6917.869,95.437,540.59,538.877,0.0
53800.0,STARLINK-4720,PAYLOAD,2023-05-02 13:51:41,15.08843714,9.9e-05,53.2159,262.2882,103.712,256.3982,3.5046e-05,2.7e-06,0.0,0 STARLINK-4720,1 53800U 22111AD  23122.57756787  .00000270  00000-0  35046-4 0  9996,2 53800  53.2159 262.2882 0000990 103.7120 256.3982 15.08843714 36493,6917.869,95.437,540.419,539.049,0.0
53800.0,STARLINK-4720,PAYLOAD,2023-05-02 17:02:27,15.08850603,9.67e-05,53.2156,261.6939,81.9739,278.1363,9.1404e-05,1.168e-05,0.0,0 STARLINK-4720,1 53800U 22111AD  23122.71004179  .00001168  00000-0  91404-4 0  9990,2 53800  53.2156 261.6939 0000967  81.9739 278.1363 15.08850603 36516,6917.848,95.437,540.382,539.044,0.0
53800.0,STARLINK-4720,PAYLOAD,2023-05-03 02:34:47,15.08842798,0.0001058,53.2169,259.9092,81.0953,279.0159,-6.57e-05,-1.333e-05,0.0,0 STARLINK-4720,1 53800U 22111AD  23123.10748940 -.00001333  00000-0 -65700-4 0  9991,2 53800  53.2169 259.9092 0001058  81.0953 279.0159 15.08842798 35766,6917.872,95.437,540.469,539.005,0.0
53800.0,STARLINK-4720,PAYLOAD,2023-05-03 13:42:29,15.08839478,0.0001315,53.2172,257.8247,110.7555,249.3578,-7.3263e-05,-1.454e-05,0.0,0 STARLINK-4720,1 53800U 22111AD  23123.57117378 -.00001454  00000-0 -73263-4 0  9994,2 53800  53.2172 257.8247 0001315 110.7555 249.3578 15.08839478 36647,6917.882,95.438,540.657,538.837,0.0
53800.0,STARLINK-4720,PAYLOAD,2023-05-03 16:53:15,15.08838564,0.0001176,53.2171,257.2304,113.3521,246.7595,-7.8047e-05,-1.53e-05,0.0,0 STARLINK-4720,1 53800U 22111AD  23123.70365414 -.00001530  00000-0 -78047-4 0  9995,2 53800  53.2171 257.2304 0001176 113.3521 246.7595 15.08838564 35858,6917.885,95.438,540.563,538.936,0.0
53800.0,STARLINK-4720,PAYLOAD,2023-05-04 13:33:15,15.08851438,0.0001205,53.216,253.3656,99.0787,261.0341,-5.5651e-05,-1.174e-05,0.0,0 STARLINK-4720,1 53800U 22111AD  23124.56476607 -.00001174  00000-0 -55651-4 0  9997,2 53800  53.2160 253.3656 0001205  99.0787 261.0341 15.08851438 35988,6917.845,95.437,540.544,538.877,0.0
53800.0,STARLINK-4720,PAYLOAD,2023-05-04 16:44:02,15.08849944,0.0001198,53.2162,252.7717,95.7951,264.3178,-5.634e-05,-1.185e-05,0.0,0 STARLINK-4720,1 53800U 22111AD  23124.69724641 -.00001185  00000-0 -56340-4 0  9993,2 53800  53.2162 252.7717 0001198  95.7951 264.3178 15.08849944 36814,6917.85,95.437,540.544,538.886,0.0
53800.0,STARLINK-4720,PAYLOAD,2023-05-05 08:37:54,15.08831082,0.0001195,53.2156,249.7991,89.8936,270.2193,2.9075e-05,1.75e-06,0.0,0 STARLINK-4720,1 53800U 22111AD  23125.35965463  .00000175  00000-0  29075-4 0  9997,2 53800  53.2156 249.7991 0001195  89.8936 270.2193 15.08831082 36100,6917.908,95.438,540.599,538.946,0.0
53800.0,STARLINK-4720,PAYLOAD,2023-05-05 14:59:26,15.08838017,0.0001191,53.2155,248.6109,74.5495,285.5629,1.319e-05,-7.8e-07,0.0,0 STARLINK-4720,1 53800U 22111AD  23125.62461282 -.00000078  00000-0  13190-4 0  9991,2 53800  53.2155 248.6109 0001191  74.5495 285.5629 15.08838017 36956,6917.886,95.438,540.575,538.928,0.0
53800.0,STARLINK-4720,PAYLOAD,2023-05-06 13:14:50,15.08838533,0.0001321,53.2149,244.4462,95.3366,264.7777,-1.4234e-05,-5.14e-06,0.0,0 STARLINK-4720,1 53800U 22111AD  23126.55197521 -.00000514  00000-0 -14234-4 0  9992,2 53800  53.2149 244.4462 0001321  95.3366 264.7777 15.08838533 37090,6917.885,95.438,540.664,538.836,0.0
53800.0,STARLINK-4720,PAYLOAD,2023-05-07 00:22:32,15.08839768,0.0001243,53.2156,242.3644,88.4487,271.6647,2.1388e-05,5.3e-07,0.0,0 STARLINK-4720,1 53800U 22111AD  23127.01565326  .00000053  00000-0  21388-4 0  9990,2 53800  53.2156 242.3644 0001243  88.4487 271.6647 15.08839768 36359,6917.881,95.438,540.606,538.886,0.0
53800.0,STARLINK-4720,PAYLOAD,2023-05-07 13:05:38,15.0883213,0.0001006,53.2148,239.9889,85.822,274.2887,-2.2675e-05,-6.49e-06,0.0,0 STARLINK-4720,1 53800U 22111AD  23127.54558124 -.00000649  00000-0 -22675-4 0  9999,2 53800  53.2148 239.9889 0001006  85.8220 274.2887 15.08832130 36436,6917.904,95.438,540.465,539.074,0.0
53800.0,STARLINK-4720,PAYLOAD,2023-05-08 00:13:19,15.08840022,9.96e-05,53.2145,237.9083,104.3638,255.7464,-3.5078e-05,-8.46e-06,0.0,0 STARLINK-4720,1 53800U 22111AD  23128.00925642 -.00000846  00000-0 -35078-4 0  9994,2 53800  53.2145 237.9083 0000996 104.3638 255.7464 15.08840022 36506,6917.88,95.438,540.434,539.056,0.0
53800.0,STARLINK-4720,PAYLOAD,2023-05-08 14:31:48,15.08841427,0.0001486,53.2149,235.2305,98.5452,261.5709,7.3377e-06,-1.71e-06,0.0,0 STARLINK-4720,1 53800U 22111AD  23128.60541763 -.00000171  00000-0  73377-5 0  9993,2 53800  53.2149 235.2305 0001486  98.5452 261.5709 15.08841427 37408,6917.876,95.437,540.769,538.713,0.0
53800.0,STARLINK-4720,PAYLOAD,2023-05-09 14:22:35,15.08841769,0.0001081,53.2154,230.7699,98.1165,261.995,4.182e-05,3.78e-06,0.0,0 STARLINK-4720,1 53800U 22111AD  23129.59901755  .00000378  00000-0  41820-4 0  9998,2 53800  53.2154 230.7699 0001081  98.1165 261.9950 15.08841769 37555,6917.875,95.437,540.488,538.992,0.0
53800.0,STARLINK-4720,PAYLOAD,2023-05-10 12:37:59,15.08836201,0.0001284,53.2154,226.607,78.8156,281.298,-4.5358e-05,-1.01e-05,0.0,0 STARLINK-4720,1 53800U 22111AD  23130.52638779 -.00001010  00000-0 -45358-4 0  9992,2 53800  53.2154 226.6070 0001284  78.8156 281.2980 15.08836201 37690,6917.892,95.438,540.645,538.869,0.0
53800.0,STARLINK-4720,PAYLOAD,2023-05-10 14:13:22,15.08841347,0.0001349,53.2172,226.3041,91.2575,268.8572,-4.0189e-05,-9.27e-06,0.0,0 STARLINK-4720,1 53800U 22111AD  23130.59262297 -.00000927  00000-0 -40189-4 0  9990,2 53800  53.2172 226.3041 0001349  91.2575 268.8572 15.08841347 36897,6917.876,95.437,540.674,538.808,0.0
